start=new Date('2022-02-03T00:00:00.000Z').valueOf();
sats=[{"ECCENTRICITY":"0.00089470","MEAN_MOTION":"15.52132857","COUNTRY_CODE":"US","MEAN_MOTION_DDOT":"0.0000000000000","RCS_SIZE":"LARGE","TLE_LINE2":"2 46568  53.0518   9.9773 0008947 141.0455 219.1200 15.52132857 74641","LAUNCH_DATE":"2020-10-06","ARG_OF_PERICENTER":"141.0455","CENTER_NAME":"EARTH","TIME_SYSTEM":"UTC","EPOCH":"2022-02-02T22:35:17.322144","BSTAR":"0.00198720000000","MEAN_MOTION_DOT":"0.00123855","MEAN_ANOMALY":"219.1200","OBJECT_ID":"2020-070AN","OBJECT_NAME":"STARLINK-1743","SITE":"AFETR","PERIAPSIS":"404.428","CLASSIFICATION_TYPE":"U","APOAPSIS":"416.576","ELEMENT_SET_NO":"999","PERIOD":"92.776","REF_FRAME":"TEME","NORAD_CAT_ID":"46568","EPHEMERIS_TYPE":"0","MEAN_ELEMENT_THEORY":"SGP4","GP_ID":"195193119","RA_OF_ASC_NODE":"9.9773","REV_AT_EPOCH":"7464","FILE":"3290513","TLE_LINE1":"1 46568U 20070AN  22033.94117271  .00123855  00000-0  19872-2 0  9993","DECAY_DATE":null,"INCLINATION":"53.0518","SEMIMAJOR_AXIS":"6788.637","OBJECT_TYPE":"PAYLOAD"},{"RCS_SIZE":"LARGE","TLE_LINE2":"2 46569  53.0553  33.3671 0001712  63.4130 296.7034 15.06389779 74270","ECCENTRICITY":"0.00017120","MEAN_MOTION":"15.06389779","COUNTRY_CODE":"US","MEAN_MOTION_DDOT":"0.0000000000000","CENTER_NAME":"EARTH","LAUNCH_DATE":"2020-10-06","ARG_OF_PERICENTER":"63.4130","SITE":"AFETR","PERIAPSIS":"546.059","EPOCH":"2022-02-02T11:28:24.050496","TIME_SYSTEM":"UTC","BSTAR":"-0.00001233800000","MEAN_MOTION_DOT":"-0.00000465","MEAN_ANOMALY":"296.7034","OBJECT_NAME":"STARLINK-1747","OBJECT_ID":"2020-070AP","APOAPSIS":"548.431","ELEMENT_SET_NO":"999","PERIOD":"95.593","REF_FRAME":"TEME","CLASSIFICATION_TYPE":"U","EPHEMERIS_TYPE":"0","NORAD_CAT_ID":"46569","RA_OF_ASC_NODE":"33.3671","REV_AT_EPOCH":"7427","MEAN_ELEMENT_THEORY":"SGP4","GP_ID":"195161927","FILE":"3290262","TLE_LINE1":"1 46569U 20070AP  22033.47805614 -.00000465  00000-0 -12338-4 0  9992","DECAY_DATE":null,"OBJECT_TYPE":"PAYLOAD","SEMIMAJOR_AXIS":"6925.380","INCLINATION":"53.0553"},{"SEMIMAJOR_AXIS":"6925.357","INCLINATION":"53.0574","OBJECT_TYPE":"PAYLOAD","FILE":"3290513","TLE_LINE1":"1 46570U 20070AQ  22033.85034252 -.00001536  00000-0 -84229-4 0  9996","DECAY_DATE":null,"MEAN_ELEMENT_THEORY":"SGP4","GP_ID":"195191618","RA_OF_ASC_NODE":"31.6943","REV_AT_EPOCH":"7432","NORAD_CAT_ID":"46570","EPHEMERIS_TYPE":"0","CLASSIFICATION_TYPE":"U","APOAPSIS":"548.313","ELEMENT_SET_NO":"999","PERIOD":"95.592","REF_FRAME":"TEME","EPOCH":"2022-02-02T20:24:29.593728","TIME_SYSTEM":"UTC","MEAN_MOTION_DOT":"-0.00001536","MEAN_ANOMALY":"306.9290","BSTAR":"-0.00008422900000","OBJECT_NAME":"STARLINK-1748","OBJECT_ID":"2020-070AQ","SITE":"AFETR","PERIAPSIS":"546.132","LAUNCH_DATE":"2020-10-06","ARG_OF_PERICENTER":"53.1843","CENTER_NAME":"EARTH","ECCENTRICITY":"0.00015750","MEAN_MOTION":"15.06397098","COUNTRY_CODE":"US","MEAN_MOTION_DDOT":"0.0000000000000","RCS_SIZE":"LARGE","TLE_LINE2":"2 46570  53.0574  31.6943 0001575  53.1843 306.9290 15.06397098 74329"},{"NORAD_CAT_ID":"46571","EPHEMERIS_TYPE":"0","MEAN_ELEMENT_THEORY":"SGP4","GP_ID":"195192869","RA_OF_ASC_NODE":"7.4473","REV_AT_EPOCH":"7465","FILE":"3290513","DECAY_DATE":null,"TLE_LINE1":"1 46571U 20070AR  22033.65583947  .00068128  00000-0  55765-3 0  9995","INCLINATION":"53.0541","SEMIMAJOR_AXIS":"6737.307","OBJECT_TYPE":"PAYLOAD","MEAN_MOTION":"15.69904439","ECCENTRICITY":"0.00054960","MEAN_MOTION_DDOT":"0.0000000000000","COUNTRY_CODE":"US","TLE_LINE2":"2 46571  53.0541   7.4473 0005496  84.9424 275.2220 15.69904439 74655","RCS_SIZE":"LARGE","ARG_OF_PERICENTER":"84.9424","LAUNCH_DATE":"2020-10-06","CENTER_NAME":"EARTH","EPOCH":"2022-02-02T15:44:24.530208","TIME_SYSTEM":"UTC","OBJECT_ID":"2020-070AR","OBJECT_NAME":"STARLINK-1753","MEAN_MOTION_DOT":"0.00068128","BSTAR":"0.00055765000000","MEAN_ANOMALY":"275.2220","SITE":"AFETR","PERIAPSIS":"355.470","CLASSIFICATION_TYPE":"U","ELEMENT_SET_NO":"999","APOAPSIS":"362.875","REF_FRAME":"TEME","PERIOD":"91.725"},{"EPHEMERIS_TYPE":"0","NORAD_CAT_ID":"46572","REV_AT_EPOCH":"7403","RA_OF_ASC_NODE":"52.0172","GP_ID":"195192620","MEAN_ELEMENT_THEORY":"SGP4","TLE_LINE1":"1 46572U 20070AS  22033.78214848  .00002938  00000-0  21607-3 0  9996","DECAY_DATE":null,"FILE":"3290513","OBJECT_TYPE":"PAYLOAD","SEMIMAJOR_AXIS":"6925.350","INCLINATION":"53.0546","RCS_SIZE":"LARGE","TLE_LINE2":"2 46572  53.0546  52.0172 0001712  67.2050 292.9120 15.06399431 74037","COUNTRY_CODE":"US","MEAN_MOTION_DDOT":"0.0000000000000","ECCENTRICITY":"0.00017120","MEAN_MOTION":"15.06399431","CENTER_NAME":"EARTH","LAUNCH_DATE":"2020-10-06","ARG_OF_PERICENTER":"67.2050","PERIAPSIS":"546.030","SITE":"AFETR","MEAN_MOTION_DOT":"0.00002938","MEAN_ANOMALY":"292.9120","BSTAR":"0.00021607000000","OBJECT_ID":"2020-070AS","OBJECT_NAME":"STARLINK-1531","TIME_SYSTEM":"UTC","EPOCH":"2022-02-02T18:46:17.628672","PERIOD":"95.592","REF_FRAME":"TEME","APOAPSIS":"548.401","ELEMENT_SET_NO":"999","CLASSIFICATION_TYPE":"U"},{"LAUNCH_DATE":"2020-10-06","ARG_OF_PERICENTER":"66.7051","CENTER_NAME":"EARTH","ECCENTRICITY":"0.00015960","MEAN_MOTION":"15.06393997","COUNTRY_CODE":"US","MEAN_MOTION_DDOT":"0.0000000000000","RCS_SIZE":"LARGE","TLE_LINE2":"2 46573  53.0558  37.3998 0001596  66.7051 293.4106 15.06393997 74231","CLASSIFICATION_TYPE":"U","APOAPSIS":"548.337","ELEMENT_SET_NO":"999","PERIOD":"95.593","REF_FRAME":"TEME","EPOCH":"2022-02-02T16:38:14.596800","TIME_SYSTEM":"UTC","MEAN_MOTION_DOT":"-0.00001655","MEAN_ANOMALY":"293.4106","BSTAR":"-0.00009225200000","OBJECT_NAME":"STARLINK-1650","OBJECT_ID":"2020-070AT","SITE":"AFETR","PERIAPSIS":"546.127","MEAN_ELEMENT_THEORY":"SGP4","GP_ID":"195191868","RA_OF_ASC_NODE":"37.3998","REV_AT_EPOCH":"7423","NORAD_CAT_ID":"46573","EPHEMERIS_TYPE":"0","INCLINATION":"53.0558","SEMIMAJOR_AXIS":"6925.367","OBJECT_TYPE":"PAYLOAD","FILE":"3290513","TLE_LINE1":"1 46573U 20070AT  22033.69322450 -.00001655  00000-0 -92252-4 0  9998","DECAY_DATE":null},{"CENTER_NAME":"EARTH","ARG_OF_PERICENTER":"70.0806","LAUNCH_DATE":"2020-10-06","RCS_SIZE":"LARGE","TLE_LINE2":"2 46574  53.0553  37.1788 0001495  70.0806 290.0344 15.06400570 74240","MEAN_MOTION_DDOT":"0.0000000000000","COUNTRY_CODE":"US","MEAN_MOTION":"15.06400570","ECCENTRICITY":"0.00014950","REF_FRAME":"TEME","PERIOD":"95.592","ELEMENT_SET_NO":"999","APOAPSIS":"548.247","CLASSIFICATION_TYPE":"U","PERIAPSIS":"546.176","SITE":"AFETR","OBJECT_NAME":"STARLINK-1660","OBJECT_ID":"2020-070AU","MEAN_MOTION_DOT":"0.00000763","MEAN_ANOMALY":"290.0344","BSTAR":"0.00007010300000","EPOCH":"2022-02-02T17:52:32.557728","TIME_SYSTEM":"UTC","REV_AT_EPOCH":"7424","RA_OF_ASC_NODE":"37.1788","GP_ID":"195192118","MEAN_ELEMENT_THEORY":"SGP4","NORAD_CAT_ID":"46574","EPHEMERIS_TYPE":"0","OBJECT_TYPE":"PAYLOAD","SEMIMAJOR_AXIS":"6925.347","INCLINATION":"53.0553","DECAY_DATE":null,"TLE_LINE1":"1 46574U 20070AU  22033.74482127  .00000763  00000-0  70103-4 0  9991","FILE":"3290513"},{"PERIAPSIS":"544.086","SITE":"AFETR","OBJECT_NAME":"STARLINK-1675","OBJECT_ID":"2020-070AV","MEAN_MOTION_DOT":"0.00034189","BSTAR":"0.00226010000000","MEAN_ANOMALY":"278.2813","EPOCH":"2022-02-02T16:03:53.786592","TIME_SYSTEM":"UTC","REF_FRAME":"TEME","PERIOD":"95.548","ELEMENT_SET_NO":"999","APOAPSIS":"546.069","CLASSIFICATION_TYPE":"U","TLE_LINE2":"2 46575  53.0553  12.4986 0001432  81.8339 278.2813 15.07097228 74577","RCS_SIZE":"LARGE","MEAN_MOTION_DDOT":"0.0000000000000","COUNTRY_CODE":"US","MEAN_MOTION":"15.07097228","ECCENTRICITY":"0.00014320","CENTER_NAME":"EARTH","ARG_OF_PERICENTER":"81.8339","LAUNCH_DATE":"2020-10-06","DECAY_DATE":null,"TLE_LINE1":"1 46575U 20070AV  22033.66937253  .00034189  00000-0  22601-2 0  9995","FILE":"3290513","OBJECT_TYPE":"PAYLOAD","SEMIMAJOR_AXIS":"6923.212","INCLINATION":"53.0553","NORAD_CAT_ID":"46575","EPHEMERIS_TYPE":"0","REV_AT_EPOCH":"7457","RA_OF_ASC_NODE":"12.4986","GP_ID":"195192370","MEAN_ELEMENT_THEORY":"SGP4"},{"CLASSIFICATION_TYPE":"U","ELEMENT_SET_NO":"999","APOAPSIS":"548.411","REF_FRAME":"TEME","PERIOD":"95.592","EPOCH":"2022-02-02T17:41:56.432544","TIME_SYSTEM":"UTC","OBJECT_NAME":"STARLINK-1677","OBJECT_ID":"2020-070AW","MEAN_MOTION_DOT":"-0.00001601","MEAN_ANOMALY":"308.6882","BSTAR":"-0.00008862500000","SITE":"AFETR","PERIAPSIS":"546.005","ARG_OF_PERICENTER":"51.4262","LAUNCH_DATE":"2020-10-06","CENTER_NAME":"EARTH","MEAN_MOTION":"15.06401925","ECCENTRICITY":"0.00017370","MEAN_MOTION_DDOT":"0.0000000000000","COUNTRY_CODE":"US","RCS_SIZE":"LARGE","TLE_LINE2":"2 46576  53.0532  37.2030 0001737  51.4262 308.6882 15.06401925 74246","SEMIMAJOR_AXIS":"6925.343","INCLINATION":"53.0532","OBJECT_TYPE":"PAYLOAD","FILE":"3290513","DECAY_DATE":null,"TLE_LINE1":"1 46576U 20070AW  22033.73745871 -.00001601  00000-0 -88625-4 0  9992","MEAN_ELEMENT_THEORY":"SGP4","GP_ID":"195193120","RA_OF_ASC_NODE":"37.2030","REV_AT_EPOCH":"7424","NORAD_CAT_ID":"46576","EPHEMERIS_TYPE":"0"},{"REV_AT_EPOCH":"7423","RA_OF_ASC_NODE":"37.3805","GP_ID":"195191369","MEAN_ELEMENT_THEORY":"SGP4","NORAD_CAT_ID":"46577","EPHEMERIS_TYPE":"0","OBJECT_TYPE":"PAYLOAD","SEMIMAJOR_AXIS":"6925.394","INCLINATION":"53.0549","TLE_LINE1":"1 46577U 20070AX  22033.70060173 -.00001075  00000-0 -53282-4 0  9991","DECAY_DATE":null,"FILE":"3290513","CENTER_NAME":"EARTH","LAUNCH_DATE":"2020-10-06","ARG_OF_PERICENTER":"75.1873","TLE_LINE2":"2 46577  53.0549  37.3805 0001645  75.1873 284.9298 15.06385232 74233","RCS_SIZE":"LARGE","COUNTRY_CODE":"US","MEAN_MOTION_DDOT":"0.0000000000000","ECCENTRICITY":"0.00016450","MEAN_MOTION":"15.06385232","PERIOD":"95.593","REF_FRAME":"TEME","APOAPSIS":"548.398","ELEMENT_SET_NO":"999","CLASSIFICATION_TYPE":"U","PERIAPSIS":"546.120","SITE":"AFETR","MEAN_ANOMALY":"284.9298","MEAN_MOTION_DOT":"-0.00001075","BSTAR":"-0.00005328200000","OBJECT_ID":"2020-070AX","OBJECT_NAME":"STARLINK-1682","TIME_SYSTEM":"UTC","EPOCH":"2022-02-02T16:48:51.989472"}];
